{
  "type": "FeatureCollection",
  "features": [
    {
      "type": "Feature",
      "properties": {
        "norad_id": 30921,
        "name": "FENGYUN 1C DEB",
        "group": "fengyun-1c-debris",
        "lat": -32.15825382643303,
        "lon": 95.12434896208094,
        "alt_km": 777.3148506099978,
        "timestamp": "2025-12-27T17:24:57.684848+00:00",
        "meta_object_name": "FENGYUN 1C DEB",
        "meta_object_id": "1999-025AZK",
        "meta_epoch": "2025-12-27T05:56:50.788320",
        "meta_mean_motion": 14.32863701,
        "meta_eccentricity": 0.00163814,
        "meta_inclination": 98.8416,
        "meta_ra_of_asc_node": 89.0209,
        "meta_arg_of_pericenter": 350.858,
        "meta_mean_anomaly": 33.183,
        "meta_ephemeris_type": 0,
        "meta_classification_type": "U",
        "meta_norad_cat_id": 30921,
        "meta_element_set_no": 999,
        "meta_rev_at_epoch": 97032,
        "meta_bstar": 0.0018740092,
        "meta_mean_motion_dot": 5.08e-05,
        "meta_mean_motion_ddot": 0,
        "tle_line1": "1 30921U 99025AZK 25361.24781005  .00005080  00000+0  18740-2 0  9998",
        "tle_line2": "2 30921  98.8416  89.0209 0016381 350.8580  33.1830 14.32863701970323"
      },
      "geometry": {
        "type": "Point",
        "coordinates": [
          95.12434896208094,
          -32.15825382643303
        ]
      }
    },
    {
      "type": "Feature",
      "properties": {
        "norad_id": 30922,
        "name": "FENGYUN 1C DEB",
        "group": "fengyun-1c-debris",
        "lat": 12.323915238211153,
        "lon": -160.94212128432966,
        "alt_km": 844.213169620446,
        "timestamp": "2025-12-27T17:24:57.684858+00:00",
        "meta_object_name": "FENGYUN 1C DEB",
        "meta_object_id": "1999-025AZL",
        "meta_epoch": "2025-12-26T12:32:51.508896",
        "meta_mean_motion": 14.17493129,
        "meta_eccentricity": 0.0014014,
        "meta_inclination": 98.6396,
        "meta_ra_of_asc_node": 15.985,
        "meta_arg_of_pericenter": 15.2933,
        "meta_mean_anomaly": 137.4014,
        "meta_ephemeris_type": 0,
        "meta_classification_type": "U",
        "meta_norad_cat_id": 30922,
        "meta_element_set_no": 999,
        "meta_rev_at_epoch": 96759,
        "meta_bstar": 0.0006125,
        "meta_mean_motion_dot": 1.201e-05,
        "meta_mean_motion_ddot": 0,
        "tle_line1": "1 30922U 99025AZL 25360.52281839  .00001201  00000+0  61250-3 0  9995",
        "tle_line2": "2 30922  98.6396  15.9850 0014014  15.2933 137.4014 14.17493129967597"
      },
      "geometry": {
        "type": "Point",
        "coordinates": [
          -160.94212128432966,
          12.323915238211153
        ]
      }
    },
    {
      "type": "Feature",
      "properties": {
        "norad_id": 30925,
        "name": "FENGYUN 1C DEB",
        "group": "fengyun-1c-debris",
        "lat": -60.95410266081732,
        "lon": -62.21039703691642,
        "alt_km": 738.5295548121694,
        "timestamp": "2025-12-27T17:24:57.684868+00:00",
        "meta_object_name": "FENGYUN 1C DEB",
        "meta_object_id": "1999-025AZP",
        "meta_epoch": "2025-12-26T15:24:53.741088",
        "meta_mean_motion": 14.43349249,
        "meta_eccentricity": 0.003338,
        "meta_inclination": 98.8809,
        "meta_ra_of_asc_node": 133.0128,
        "meta_arg_of_pericenter": 197.4649,
        "meta_mean_anomaly": 178.3104,
        "meta_ephemeris_type": 0,
        "meta_classification_type": "U",
        "meta_norad_cat_id": 30925,
        "meta_element_set_no": 999,
        "meta_rev_at_epoch": 97273,
        "meta_bstar": 0.0028008,
        "meta_mean_motion_dot": 9.474e-05,
        "meta_mean_motion_ddot": 0,
        "tle_line1": "1 30925U 99025AZP 25360.64228867  .00009474  00000+0  28008-2 0  9996",
        "tle_line2": "2 30925  98.8809 133.0128 0033380 197.4649 178.3104 14.43349249972733"
      },
      "geometry": {
        "type": "Point",
        "coordinates": [
          -62.21039703691642,
          -60.95410266081732
        ]
      }
    },
    {
      "type": "Feature",
      "properties": {
        "norad_id": 30926,
        "name": "FENGYUN 1C DEB",
        "group": "fengyun-1c-debris",
        "lat": 0.27368752358549,
        "lon": -55.893873619339075,
        "alt_km": 499.5080616178975,
        "timestamp": "2025-12-27T17:24:57.684879+00:00",
        "meta_object_name": "FENGYUN 1C DEB",
        "meta_object_id": "1999-025AZQ",
        "meta_epoch": "2025-12-26T18:50:41.165088",
        "meta_mean_motion": 14.8955659,
        "meta_eccentricity": 0.01642283,
        "meta_inclination": 98.8036,
        "meta_ra_of_asc_node": 303.1023,
        "meta_arg_of_pericenter": 336.7027,
        "meta_mean_anomaly": 22.6802,
        "meta_ephemeris_type": 0,
        "meta_classification_type": "U",
        "meta_norad_cat_id": 30926,
        "meta_element_set_no": 999,
        "meta_rev_at_epoch": 976,
        "meta_bstar": 0.00069862808,
        "meta_mean_motion_dot": 8.521e-05,
        "meta_mean_motion_ddot": 0,
        "tle_line1": "1 30926U 99025AZQ 25360.78519867  .00008521  00000+0  69863-3 0  9992",
        "tle_line2": "2 30926  98.8036 303.1023 0164228 336.7027  22.6802 14.89556590  9763"
      },
      "geometry": {
        "type": "Point",
        "coordinates": [
          -55.893873619339075,
          0.27368752358549
        ]
      }
    },
    {
      "type": "Feature",
      "properties": {
        "norad_id": 30927,
        "name": "FENGYUN 1C DEB",
        "group": "fengyun-1c-debris",
        "lat": -3.061781826955391,
        "lon": -118.01835221240961,
        "alt_km": 920.5312863506651,
        "timestamp": "2025-12-27T17:24:57.684889+00:00",
        "meta_object_name": "FENGYUN 1C DEB",
        "meta_object_id": "1999-025AZR",
        "meta_epoch": "2025-12-27T02:54:37.100736",
        "meta_mean_motion": 14.0905928,
        "meta_eccentricity": 0.00983811,
        "meta_inclination": 99.1808,
        "meta_ra_of_asc_node": 61.8617,
        "meta_arg_of_pericenter": 325.1538,
        "meta_mean_anomaly": 34.3215,
        "meta_ephemeris_type": 0,
        "meta_classification_type": "U",
        "meta_norad_cat_id": 30927,
        "meta_element_set_no": 999,
        "meta_rev_at_epoch": 95886,
        "meta_bstar": 0.0017895793,
        "meta_mean_motion_dot": 3.198e-05,
        "meta_mean_motion_ddot": 0,
        "tle_line1": "1 30927U 99025AZR 25361.12126274  .00003198  00000+0  17896-2 0  9991",
        "tle_line2": "2 30927  99.1808  61.8617 0098381 325.1538  34.3215 14.09059280958865"
      },
      "geometry": {
        "type": "Point",
        "coordinates": [
          -118.01835221240961,
          -3.061781826955391
        ]
      }
    },
    {
      "type": "Feature",
      "properties": {
        "norad_id": 30928,
        "name": "FENGYUN 1C DEB",
        "group": "fengyun-1c-debris",
        "lat": -5.678908724963694,
        "lon": -92.06767609086583,
        "alt_km": 1513.2634289659309,
        "timestamp": "2025-12-27T17:24:57.684900+00:00",
        "meta_object_name": "FENGYUN 1C DEB",
        "meta_object_id": "1999-025AZS",
        "meta_epoch": "2025-12-26T17:37:41.302848",
        "meta_mean_motion": 13.22258776,
        "meta_eccentricity": 0.0449838,
        "meta_inclination": 98.8822,
        "meta_ra_of_asc_node": 87.9777,
        "meta_arg_of_pericenter": 357.5686,
        "meta_mean_anomaly": 153.3904,
        "meta_ephemeris_type": 0,
        "meta_classification_type": "U",
        "meta_norad_cat_id": 30928,
        "meta_element_set_no": 999,
        "meta_rev_at_epoch": 90533,
        "meta_bstar": 0.0012328775,
        "meta_mean_motion_dot": 8.4e-06,
        "meta_mean_motion_ddot": 0,
        "tle_line1": "1 30928U 99025AZS 25360.73450582  .00000840  00000+0  12329-2 0  9997",
        "tle_line2": "2 30928  98.8822  87.9777 0449838 357.5686 153.3904 13.22258776905330"
      },
      "geometry": {
        "type": "Point",
        "coordinates": [
          -92.06767609086583,
          -5.678908724963694
        ]
      }
    },
    {
      "type": "Feature",
      "properties": {
        "norad_id": 30930,
        "name": "FENGYUN 1C DEB",
        "group": "fengyun-1c-debris",
        "lat": 50.64238172668534,
        "lon": 19.207203680568007,
        "alt_km": 685.2484042228043,
        "timestamp": "2025-12-27T17:24:57.684910+00:00",
        "meta_object_name": "FENGYUN 1C DEB",
        "meta_object_id": "1999-025AZU",
        "meta_epoch": "2025-12-26T01:20:20.657760",
        "meta_mean_motion": 14.37418558,
        "meta_eccentricity": 0.01096221,
        "meta_inclination": 98.2142,
        "meta_ra_of_asc_node": 27.7556,
        "meta_arg_of_pericenter": 66.7393,
        "meta_mean_anomaly": 348.8311,
        "meta_ephemeris_type": 0,
        "meta_classification_type": "U",
        "meta_norad_cat_id": 30930,
        "meta_element_set_no": 999,
        "meta_rev_at_epoch": 98523,
        "meta_bstar": 0.00033220225,
        "meta_mean_motion_dot": 1.022e-05,
        "meta_mean_motion_ddot": 0,
        "tle_line1": "1 30930U 99025AZU 25360.05579465  .00001022  00000+0  33220-3 0  9994",
        "tle_line2": "2 30930  98.2142  27.7556 0109622  66.7393 348.8311 14.37418558985230"
      },
      "geometry": {
        "type": "Point",
        "coordinates": [
          19.207203680568007,
          50.64238172668534
        ]
      }
    }
  ]
}